{
  "type": "FeatureCollection",
  "features": [
    {
      "type": "Feature",
      "properties": {
        "norad_id": 30883,
        "name": "FENGYUN 1C DEB",
        "group": "fengyun-1c-debris",
        "lat": -46.67708640447948,
        "lon": 29.121617100908534,
        "alt_km": 846.1025408297328,
        "timestamp": "2025-12-08T19:31:49.088278+00:00",
        "meta_object_name": "FENGYUN 1C DEB",
        "meta_object_id": "1999-025AXV",
        "meta_epoch": "2025-12-06T21:04:22.008864",
        "meta_mean_motion": 14.14542279,
        "meta_eccentricity": 0.01115621,
        "meta_inclination": 98.3626,
        "meta_ra_of_asc_node": 18.3352,
        "meta_arg_of_pericenter": 230.8995,
        "meta_mean_anomaly": 308.7282,
        "meta_ephemeris_type": 0,
        "meta_classification_type": "U",
        "meta_norad_cat_id": 30883,
        "meta_element_set_no": 999,
        "meta_rev_at_epoch": 96834,
        "meta_bstar": 0.00035163025,
        "meta_mean_motion_dot": 6.76e-06,
        "meta_mean_motion_ddot": 0,
        "tle_line1": "1 30883U 99025AXV 25340.87803251  .00000676  00000+0  35163-3 0  9994",
        "tle_line2": "2 30883  98.3626  18.3352 0111562 230.8995 308.7282 14.14542279968341"
      },
      "geometry": {
        "type": "Point",
        "coordinates": [
          29.121617100908534,
          -46.67708640447948
        ]
      }
    },
    {
      "type": "Feature",
      "properties": {
        "norad_id": 30884,
        "name": "FENGYUN 1C DEB",
        "group": "fengyun-1c-debris",
        "lat": 24.303112405716565,
        "lon": 160.32718743100708,
        "alt_km": 696.3641995430171,
        "timestamp": "2025-12-08T19:31:49.088287+00:00",
        "meta_object_name": "FENGYUN 1C DEB",
        "meta_object_id": "1999-025AXW",
        "meta_epoch": "2025-12-05T22:22:04.032768",
        "meta_mean_motion": 14.73183421,
        "meta_eccentricity": 0.00678958,
        "meta_inclination": 98.8896,
        "meta_ra_of_asc_node": 333.1207,
        "meta_arg_of_pericenter": 357.0817,
        "meta_mean_anomaly": 2.9982,
        "meta_ephemeris_type": 0,
        "meta_classification_type": "U",
        "meta_norad_cat_id": 30884,
        "meta_element_set_no": 999,
        "meta_rev_at_epoch": 98561,
        "meta_bstar": 0.0032996075,
        "meta_mean_motion_dot": 0.00022079,
        "meta_mean_motion_ddot": 0,
        "tle_line1": "1 30884U 99025AXW 25339.93199112  .00022079  00000+0  32996-2 0  9995",
        "tle_line2": "2 30884  98.8896 333.1207 0067895 357.0817   2.9982 14.73183421985611"
      },
      "geometry": {
        "type": "Point",
        "coordinates": [
          160.32718743100708,
          24.303112405716565
        ]
      }
    },
    {
      "type": "Feature",
      "properties": {
        "norad_id": 30885,
        "name": "FENGYUN 1C DEB",
        "group": "fengyun-1c-debris",
        "lat": 3.1199965921212622,
        "lon": 3.5629729216857586,
        "alt_km": 707.9738934912393,
        "timestamp": "2025-12-08T19:31:49.088302+00:00",
        "meta_object_name": "FENGYUN 1C DEB",
        "meta_object_id": "1999-025AXX",
        "meta_epoch": "2025-12-08T01:12:55.410912",
        "meta_mean_motion": 14.4928324,
        "meta_eccentricity": 0.00540743,
        "meta_inclination": 99.0258,
        "meta_ra_of_asc_node": 182.2506,
        "meta_arg_of_pericenter": 233.4573,
        "meta_mean_anomaly": 284.499,
        "meta_ephemeris_type": 0,
        "meta_classification_type": "U",
        "meta_norad_cat_id": 30885,
        "meta_element_set_no": 999,
        "meta_rev_at_epoch": 96909,
        "meta_bstar": 0.0035155877,
        "meta_mean_motion_dot": 0.00013636,
        "meta_mean_motion_ddot": 0,
        "tle_line1": "1 30885U 99025AXX 25342.05064133  .00013636  00000+0  35156-2 0  9997",
        "tle_line2": "2 30885  99.0258 182.2506 0054074 233.4573 284.4990 14.49283240969096"
      },
      "geometry": {
        "type": "Point",
        "coordinates": [
          3.5629729216857586,
          3.1199965921212622
        ]
      }
    },
    {
      "type": "Feature",
      "properties": {
        "norad_id": 30886,
        "name": "FENGYUN 1C DEB",
        "group": "fengyun-1c-debris",
        "lat": 79.62040243034022,
        "lon": 173.27963013657276,
        "alt_km": 788.8440173582321,
        "timestamp": "2025-12-08T19:31:49.088312+00:00",
        "meta_object_name": "FENGYUN 1C DEB",
        "meta_object_id": "1999-025AXY",
        "meta_epoch": "2025-12-08T03:56:36.590496",
        "meta_mean_motion": 14.22727915,
        "meta_eccentricity": 0.00361256,
        "meta_inclination": 99.2087,
        "meta_ra_of_asc_node": 234.9347,
        "meta_arg_of_pericenter": 46.7519,
        "meta_mean_anomaly": 313.6663,
        "meta_ephemeris_type": 0,
        "meta_classification_type": "U",
        "meta_norad_cat_id": 30886,
        "meta_element_set_no": 999,
        "meta_rev_at_epoch": 96331,
        "meta_bstar": 0.0023663908,
        "meta_mean_motion_dot": 5.293e-05,
        "meta_mean_motion_ddot": 0,
        "tle_line1": "1 30886U 99025AXY 25342.16431239  .00005293  00000+0  23664-2 0  9996",
        "tle_line2": "2 30886  99.2087 234.9347 0036125  46.7519 313.6663 14.22727915963313"
      },
      "geometry": {
        "type": "Point",
        "coordinates": [
          173.27963013657276,
          79.62040243034022
        ]
      }
    },
    {
      "type": "Feature",
      "properties": {
        "norad_id": 30887,
        "name": "FENGYUN 1C DEB",
        "group": "fengyun-1c-debris",
        "lat": 74.66126341335189,
        "lon": -108.80786221633204,
        "alt_km": 914.9587705759723,
        "timestamp": "2025-12-08T19:31:49.088321+00:00",
        "meta_object_name": "FENGYUN 1C DEB",
        "meta_object_id": "1999-025AXZ",
        "meta_epoch": "2025-12-07T21:26:26.496672",
        "meta_mean_motion": 14.44769482,
        "meta_eccentricity": 0.02638165,
        "meta_inclination": 98.369,
        "meta_ra_of_asc_node": 37.8263,
        "meta_arg_of_pericenter": 302.5709,
        "meta_mean_anomaly": 55.0254,
        "meta_ephemeris_type": 0,
        "meta_classification_type": "U",
        "meta_norad_cat_id": 30887,
        "meta_element_set_no": 999,
        "meta_rev_at_epoch": 98058,
        "meta_bstar": 0.00084747581,
        "meta_mean_motion_dot": 4.462e-05,
        "meta_mean_motion_ddot": 0,
        "tle_line1": "1 30887U 99025AXZ 25341.89336223  .00004462  00000+0  84748-3 0  9991",
        "tle_line2": "2 30887  98.3690  37.8263 0263816 302.5709  55.0254 14.44769482980584"
      },
      "geometry": {
        "type": "Point",
        "coordinates": [
          -108.80786221633204,
          74.66126341335189
        ]
      }
    },
    {
      "type": "Feature",
      "properties": {
        "norad_id": 30888,
        "name": "FENGYUN 1C DEB",
        "group": "fengyun-1c-debris",
        "lat": -50.886645162158736,
        "lon": -27.32368884650584,
        "alt_km": 640.4101945841385,
        "timestamp": "2025-12-08T19:31:49.088330+00:00",
        "meta_object_name": "FENGYUN 1C DEB",
        "meta_object_id": "1999-025AYA",
        "meta_epoch": "2025-12-07T21:15:30.326688",
        "meta_mean_motion": 14.93719985,
        "meta_eccentricity": 0.00832581,
        "meta_inclination": 99.4822,
        "meta_ra_of_asc_node": 319.6957,
        "meta_arg_of_pericenter": 166.267,
        "meta_mean_anomaly": 194.0837,
        "meta_ephemeris_type": 0,
        "meta_classification_type": "U",
        "meta_norad_cat_id": 30888,
        "meta_element_set_no": 999,
        "meta_rev_at_epoch": 99853,
        "meta_bstar": 0.0013841415,
        "meta_mean_motion_dot": 0.00015631,
        "meta_mean_motion_ddot": 0,
        "tle_line1": "1 30888U 99025AYA 25341.88576767  .00015631  00000+0  13841-2 0  9995",
        "tle_line2": "2 30888  99.4822 319.6957 0083258 166.2670 194.0837 14.93719985998539"
      },
      "geometry": {
        "type": "Point",
        "coordinates": [
          -27.32368884650584,
          -50.886645162158736
        ]
      }
    },
    {
      "type": "Feature",
      "properties": {
        "norad_id": 30891,
        "name": "FENGYUN 1C DEB",
        "group": "fengyun-1c-debris",
        "lat": 26.74547234926546,
        "lon": 26.08266555376429,
        "alt_km": 912.0317292454301,
        "timestamp": "2025-12-08T19:31:49.088339+00:00",
        "meta_object_name": "FENGYUN 1C DEB",
        "meta_object_id": "1999-025AYD",
        "meta_epoch": "2025-12-08T02:27:34.225344",
        "meta_mean_motion": 14.05848343,
        "meta_eccentricity": 0.00550914,
        "meta_inclination": 98.7846,
        "meta_ra_of_asc_node": 29.8623,
        "meta_arg_of_pericenter": 200.6851,
        "meta_mean_anomaly": 188.7484,
        "meta_ephemeris_type": 0,
        "meta_classification_type": "U",
        "meta_norad_cat_id": 30891,
        "meta_element_set_no": 999,
        "meta_rev_at_epoch": 95917,
        "meta_bstar": 0.0010011846,
        "meta_mean_motion_dot": 1.617e-05,
        "meta_mean_motion_ddot": 0,
        "tle_line1": "1 30891U 99025AYD 25342.10247946  .00001617  00000+0  10012-2 0  9995",
        "tle_line2": "2 30891  98.7846  29.8623 0055091 200.6851 188.7484 14.05848343959178"
      },
      "geometry": {
        "type": "Point",
        "coordinates": [
          26.08266555376429,
          26.74547234926546
        ]
      }
    }
  ]
}